ONEWEB-0520             
1 54138U 22138AB  24223.67803169  .00000055  00000+0  10392-3 0  9997
2 54138  87.9102  79.3610 0001391  68.6973 291.4308 13.19725601 87725
ONEWEB-0521             
1 54139U 22138AC  24223.63539084  .00000053  00000+0  99328-4 0  9991
2 54139  87.9100  79.3615 0002002  81.7779 278.3581 13.19724927 87669
ONEWEB-0522             
1 54140U 22138AD  24224.06975360 -.00000007  00000+0 -50683-4 0  9994
2 54140  87.9100  79.2763 0001622  83.6244 276.5073 13.19724681 88630
ONEWEB-0523             
1 54141U 22138AE  24223.88596454 -.00000005  00000+0 -43356-4 0  9994
2 54141  87.9187  48.7742 0002509 103.4846 256.6567 13.20770712 91031
ONEWEB-0524             
1 54142U 22138AF  24224.48097247  .00000091  00000+0  19178-3 0  9995
2 54142  87.9187  48.6588 0001844 124.7567 235.3740 13.20772484 91110
ONEWEB-0525             
1 54143U 22138AG  24223.63380845  .00000057  00000+0  10945-3 0  9996
2 54143  87.9104  79.3739 0001537  73.7037 286.4264 13.19725066 87725
ONEWEB-0526             
1 54144U 22138AH  24224.12186172  .00000027  00000+0  35720-4 0  9995
2 54144  87.9101  79.2707 0001582  81.4551 278.6761 13.19727628 88636
ONEWEB-0529             
1 54145U 22138AJ  24224.12503374  .00000036  00000+0  58332-4 0  9997
2 54145  87.9110  79.2891 0001430  74.9800 285.1491 13.19726608 88659
